ONEWEB-0461             
1 51649U 22012AD  25361.15774090  .00000022  00000+0  22647-4 0  9990
2 51649  87.9104  40.0479 0001705 100.8112 259.3211 13.17648963191233
ONEWEB-0463             
1 51650U 22012AE  25361.06322552  .00000026  00000+0  33575-4 0  9990
2 51650  87.9088  40.1073 0001856 100.1248 260.0093 13.17650907191000
ONEWEB-0464             
1 51651U 22012AF  25361.15218057 -.00000200  00000+0 -60845-3 0  9990
2 51651  87.8795  70.5833 0001723  94.4598 265.6726 13.10371962186790
ONEWEB-0468             
1 51652U 22012AG  25361.15881897 -.00000486  00000+0 -14272-2 0  9997
2 51652  87.8799  70.5751 0001871  97.2140 262.9200 13.10375253186774
ONEWEB-0473             
1 51653U 22012AH  25361.14388448 -.00000481  00000+0 -14156-2 0  9997
2 51653  87.8790  70.5810 0001870 101.8074 258.3263 13.10371667186772
ONEWEB-0474             
1 51654U 22012AJ  25361.13559087 -.00000166  00000+0 -51301-3 0  9990
2 51654  87.8802  70.5504 0001897  95.1718 264.9626 13.10370724186764
ONEWEB-0475             
1 51655U 22012AK  25361.15097080  .00000029  00000+0  41202-4 0  9999
2 51655  87.9095  40.0806 0002428  87.3777 272.7632 13.17650687191032
ONEWEB-0490             
1 54113U 22138A   25361.18210422  .00000084  00000+0  17872-3 0  9996
2 54113  87.9221 339.1819 0001848  78.4480 281.6860 13.19726261154145
